{
  "type": "FeatureCollection",
  "features": [
    {
      "type": "Feature",
      "properties": {
        "id": 3,
        "name": "Saltrun",
        "type": "River"
      },
      "geometry": {
        "type": "LineString",
        "coordinates": [
          [
            100,
            100
          ],
          [
            140,
            130
          ],
          [
            180,
            150
          ],
          [
            220,
            200
          ]
        ]
      }
    }
  ]
}
